[{"OBJECT_NAME":"STARLINK-33806","OBJECT_ID":"2025-087AC","EPOCH":"2026-03-09T17:04:07.523616","MEAN_MOTION":15.30204646,"ECCENTRICITY":9.161e-5,"INCLINATION":53.1573,"RA_OF_ASC_NODE":219.3962,"ARG_OF_PERICENTER":67.9403,"MEAN_ANOMALY":292.1695,"EPHEMERIS_TYPE":0,"CLASSIFICATION_TYPE":"U","NORAD_CAT_ID":63723,"ELEMENT_SET_NO":999,"REV_AT_EPOCH":4920,"BSTAR":0.00096211424,"MEAN_MOTION_DOT":0.00028248,"MEAN_MOTION_DDOT":0},{"OBJECT_NAME":"OBJECT R","OBJECT_ID":"2018-111R","EPOCH":"2026-03-09T23:55:12.472032","MEAN_MOTION":15.36792156,"ECCENTRICITY":0.00179753,"INCLINATION":97.014,"RA_OF_ASC_NODE":269.2496,"ARG_OF_PERICENTER":268.8687,"MEAN_ANOMALY":91.0499,"EPHEMERIS_TYPE":0,"CLASSIFICATION_TYPE":"U","NORAD_CAT_ID":43891,"ELEMENT_SET_NO":999,"REV_AT_EPOCH":40119,"BSTAR":0.00024292589,"MEAN_MOTION_DOT":8.703e-5,"MEAN_MOTION_DDOT":0}]
